[{"OBJECT_NAME":"STARLINK-11635 [DTC]","OBJECT_ID":"2025-048L","EPOCH":"2026-02-09T06:19:28.327584","MEAN_MOTION":15.70950936,"ECCENTRICITY":0.00016544,"INCLINATION":42.9992,"RA_OF_ASC_NODE":130.9523,"ARG_OF_PERICENTER":227.9429,"MEAN_ANOMALY":132.1298,"EPHEMERIS_TYPE":0,"CLASSIFICATION_TYPE":"U","NORAD_CAT_ID":63193,"ELEMENT_SET_NO":999,"REV_AT_EPOCH":5405,"BSTAR":0.0017757246,"MEAN_MOTION_DOT":0.00235055,"MEAN_MOTION_DDOT":0},{"OBJECT_NAME":"STARLINK-11636 [DTC]","OBJECT_ID":"2025-048M","EPOCH":"2026-02-09T07:05:20.457024","MEAN_MOTION":15.7116133,"ECCENTRICITY":0.00027043,"INCLINATION":42.9982,"RA_OF_ASC_NODE":131.2057,"ARG_OF_PERICENTER":199.9258,"MEAN_ANOMALY":160.1505,"EPHEMERIS_TYPE":0,"CLASSIFICATION_TYPE":"U","NORAD_CAT_ID":63194,"ELEMENT_SET_NO":999,"REV_AT_EPOCH":5405,"BSTAR":0.0026589694,"MEAN_MOTION_DOT":0.00360807,"MEAN_MOTION_DDOT":0},{"OBJECT_NAME":"STARLINK-11631 [DTC]","OBJECT_ID":"2025-048N","EPOCH":"2026-02-08T07:10:58.359648","MEAN_MOTION":15.70835453,"ECCENTRICITY":0.0001525,"INCLINATION":42.9997,"RA_OF_ASC_NODE":137.5149,"ARG_OF_PERICENTER":296.1492,"MEAN_ANOMALY":63.9219,"EPHEMERIS_TYPE":0,"CLASSIFICATION_TYPE":"U","NORAD_CAT_ID":63195,"ELEMENT_SET_NO":999,"REV_AT_EPOCH":5389,"BSTAR":0.001743,"MEAN_MOTION_DOT":0.00229444,"MEAN_MOTION_DDOT":0},{"OBJECT_NAME":"STARLINK-32946","OBJECT_ID":"2025-048P","EPOCH":"2026-02-07T23:40:10.087968","MEAN_MOTION":15.27599339,"ECCENTRICITY":6.6e-5,"INCLINATION":43.0007,"RA_OF_ASC_NODE":257.0772,"ARG_OF_PERICENTER":282.0146,"MEAN_ANOMALY":78.0632,"EPHEMERIS_TYPE":0,"CLASSIFICATION_TYPE":"U","NORAD_CAT_ID":63196,"ELEMENT_SET_NO":999,"REV_AT_EPOCH":5250,"BSTAR":0.00074732874,"MEAN_MOTION_DOT":0.00020372,"MEAN_MOTION_DDOT":0},{"OBJECT_NAME":"STARLINK-32960","OBJECT_ID":"2025-048Q","EPOCH":"2026-02-09T00:10:20.189568","MEAN_MOTION":15.27588179,"ECCENTRICITY":0.00022464,"INCLINATION":42.9976,"RA_OF_ASC_NODE":247.4665,"ARG_OF_PERICENTER":241.1245,"MEAN_ANOMALY":118.9381,"EPHEMERIS_TYPE":0,"CLASSIFICATION_TYPE":"U","NORAD_CAT_ID":63197,"ELEMENT_SET_NO":999,"REV_AT_EPOCH":5270,"BSTAR":0.0012000212,"MEAN_MOTION_DOT":0.00032917,"MEAN_MOTION_DDOT":0},{"OBJECT_NAME":"STARLINK-32904","OBJECT_ID":"2025-048R","EPOCH":"2026-02-07T23:42:28.885248","MEAN_MOTION":15.27598672,"ECCENTRICITY":9.409e-5,"INCLINATION":42.9987,"RA_OF_ASC_NODE":252.7154,"ARG_OF_PERICENTER":55.5115,"MEAN_ANOMALY":304.5825,"EPHEMERIS_TYPE":0,"CLASSIFICATION_TYPE":"U","NORAD_CAT_ID":63198,"ELEMENT_SET_NO":999,"REV_AT_EPOCH":5255,"BSTAR":0.0012769828,"MEAN_MOTION_DOT":0.00035065,"MEAN_MOTION_DDOT":0},{"OBJECT_NAME":"STARLINK-32931","OBJECT_ID":"2025-048S","EPOCH":"2026-02-08T00:17:38.122656","MEAN_MOTION":15.27614914,"ECCENTRICITY":0.00010929,"INCLINATION":42.9978,"RA_OF_ASC_NODE":252.8962,"ARG_OF_PERICENTER":251.1989,"MEAN_ANOMALY":108.8744,"EPHEMERIS_TYPE":0,"CLASSIFICATION_TYPE":"U","NORAD_CAT_ID":63199,"ELEMENT_SET_NO":999,"REV_AT_EPOCH":5255,"BSTAR":0.0010423375,"MEAN_MOTION_DOT":0.00028562,"MEAN_MOTION_DDOT":0},{"OBJECT_NAME":"STARLINK-32934","OBJECT_ID":"2025-048T","EPOCH":"2026-02-07T23:51:46.528992","MEAN_MOTION":15.27581942,"ECCENTRICITY":0.00019401,"INCLINATION":42.9913,"RA_OF_ASC_NODE":252.7661,"ARG_OF_PERICENTER":44.5781,"MEAN_ANOMALY":315.5227,"EPHEMERIS_TYPE":0,"CLASSIFICATION_TYPE":"U","NORAD_CAT_ID":63200,"ELEMENT_SET_NO":999,"REV_AT_EPOCH":5255,"BSTAR":0.00087220162,"MEAN_MOTION_DOT":0.00023819,"MEAN_MOTION_DDOT":0},{"OBJECT_NAME":"STARLINK-32938","OBJECT_ID":"2025-048U","EPOCH":"2026-02-08T23:55:32.291328","MEAN_MOTION":15.27629284,"ECCENTRICITY":0.00015531,"INCLINATION":42.9985,"RA_OF_ASC_NODE":247.3844,"ARG_OF_PERICENTER":273.3214,"MEAN_ANOMALY":86.746,"EPHEMERIS_TYPE":0,"CLASSIFICATION_TYPE":"U","NORAD_CAT_ID":63201,"ELEMENT_SET_NO":999,"REV_AT_EPOCH":5270,"BSTAR":0.00096313479,"MEAN_MOTION_DOT":0.00026376,"MEAN_MOTION_DDOT":0},{"OBJECT_NAME":"STARLINK-32935","OBJECT_ID":"2025-048V","EPOCH":"2026-02-07T23:20:30.050592","MEAN_MOTION":15.27601375,"ECCENTRICITY":3.01e-5,"INCLINATION":43.0001,"RA_OF_ASC_NODE":253.4636,"ARG_OF_PERICENTER":276.6091,"MEAN_ANOMALY":83.4726,"EPHEMERIS_TYPE":0,"CLASSIFICATION_TYPE":"U","NORAD_CAT_ID":63202,"ELEMENT_SET_NO":999,"REV_AT_EPOCH":5254,"BSTAR":0.0010151,"MEAN_MOTION_DOT":0.00027794,"MEAN_MOTION_DDOT":0},{"OBJECT_NAME":"STARLINK-32930","OBJECT_ID":"2025-048W","EPOCH":"2026-02-08T16:30:39.693888","MEAN_MOTION":15.27594342,"ECCENTRICITY":0.00010941,"INCLINATION":42.9995,"RA_OF_ASC_NODE":249.3644,"ARG_OF_PERICENTER":253.8927,"MEAN_ANOMALY":106.1804,"EPHEMERIS_TYPE":0,"CLASSIFICATION_TYPE":"U","NORAD_CAT_ID":63203,"ELEMENT_SET_NO":999,"REV_AT_EPOCH":5265,"BSTAR":0.00075753946,"MEAN_MOTION_DOT":0.00020651,"MEAN_MOTION_DDOT":0},{"OBJECT_NAME":"STARLINK-11654 [DTC]","OBJECT_ID":"2025-053A","EPOCH":"2026-02-08T02:00:40.758048","MEAN_MOTION":15.70880954,"ECCENTRICITY":0.00026647,"INCLINATION":43.0015,"RA_OF_ASC_NODE":290.6447,"ARG_OF_PERICENTER":247.7129,"MEAN_ANOMALY":112.3456,"EPHEMERIS_TYPE":0,"CLASSIFICATION_TYPE":"U","NORAD_CAT_ID":63265,"ELEMENT_SET_NO":999,"REV_AT_EPOCH":5301,"BSTAR":0.0017012748,"MEAN_MOTION_DOT":0.00224236,"MEAN_MOTION_DDOT":0},{"OBJECT_NAME":"STARLINK-11659 [DTC]","OBJECT_ID":"2025-053B","EPOCH":"2026-02-09T00:46:26.301504","MEAN_MOTION":15.70815803,"ECCENTRICITY":0.00016574,"INCLINATION":43.0001,"RA_OF_ASC_NODE":284.8568,"ARG_OF_PERICENTER":278.02,"MEAN_ANOMALY":82.048,"EPHEMERIS_TYPE":0,"CLASSIFICATION_TYPE":"U","NORAD_CAT_ID":63266,"ELEMENT_SET_NO":999,"REV_AT_EPOCH":5316,"BSTAR":-9.0935636e-5,"MEAN_MOTION_DOT":-0.00012088,"MEAN_MOTION_DDOT":0},{"OBJECT_NAME":"STARLINK-11653 [DTC]","OBJECT_ID":"2025-053C","EPOCH":"2026-02-08T00:53:22.074720","MEAN_MOTION":15.70823198,"ECCENTRICITY":0.00027559,"INCLINATION":42.9986,"RA_OF_ASC_NODE":291.1664,"ARG_OF_PERICENTER":247.5155,"MEAN_ANOMALY":112.5421,"EPHEMERIS_TYPE":0,"CLASSIFICATION_TYPE":"U","NORAD_CAT_ID":63267,"ELEMENT_SET_NO":999,"REV_AT_EPOCH":5300,"BSTAR":0.0015297311,"MEAN_MOTION_DOT":0.00200517,"MEAN_MOTION_DDOT":0},{"OBJECT_NAME":"STARLINK-11641 [DTC]","OBJECT_ID":"2025-053D","EPOCH":"2026-02-09T00:23:29.935680","MEAN_MOTION":15.70864592,"ECCENTRICITY":0.00022289,"INCLINATION":42.9994,"RA_OF_ASC_NODE":284.7251,"ARG_OF_PERICENTER":273.8697,"MEAN_ANOMALY":86.1916,"EPHEMERIS_TYPE":0,"CLASSIFICATION_TYPE":"U","NORAD_CAT_ID":63268,"ELEMENT_SET_NO":999,"REV_AT_EPOCH":5316,"BSTAR":0.0020064383,"MEAN_MOTION_DOT":0.00265683,"MEAN_MOTION_DDOT":0},{"OBJECT_NAME":"STARLINK-11638 [DTC]","OBJECT_ID":"2025-053E","EPOCH":"2026-02-09T00:31:08.656608","MEAN_MOTION":15.71115941,"ECCENTRICITY":0.00036253,"INCLINATION":42.9994,"RA_OF_ASC_NODE":284.7681,"ARG_OF_PERICENTER":268.2663,"MEAN_ANOMALY":91.7789,"EPHEMERIS_TYPE":0,"CLASSIFICATION_TYPE":"U","NORAD_CAT_ID":63269,"ELEMENT_SET_NO":999,"REV_AT_EPOCH":5316,"BSTAR":0.0024746431,"MEAN_MOTION_DOT":0.00334058,"MEAN_MOTION_DDOT":0}]
