STARLINK-11635 [DTC]    
1 63193U 25048L   26040.26352231  .00235055  00000+0  17757-2 0  9995
2 63193  42.9992 130.9523 0001654 227.9429 132.1298 15.70950936 54058
STARLINK-11636 [DTC]    
1 63194U 25048M   26040.29537566  .00360807  00000+0  26590-2 0  9994
2 63194  42.9982 131.2057 0002704 199.9258 160.1505 15.71161330 54054
STARLINK-11631 [DTC]    
1 63195U 25048N   26039.29928657  .00229444  00000+0  17430-2 0  9992
2 63195  42.9997 137.5149 0001525 296.1492  63.9219 15.70835453 53898
STARLINK-32946          
1 63196U 25048P   26038.98622787  .00020372  00000+0  74733-3 0  9992
2 63196  43.0007 257.0772 0000660 282.0146  78.0632 15.27599339 52507
STARLINK-32960          
1 63197U 25048Q   26040.00717812  .00032917  00000+0  12000-2 0  9999
2 63197  42.9976 247.4665 0002246 241.1245 118.9381 15.27588179 52700
STARLINK-32904          
1 63198U 25048R   26038.98783432  .00035065  00000+0  12770-2 0  9996
2 63198  42.9987 252.7154 0000940  55.5115 304.5825 15.27598672 52555
STARLINK-32931          
1 63199U 25048S   26039.01224679  .00028562  00000+0  10423-2 0  9992
2 63199  42.9978 252.8962 0001092 251.1989 108.8744 15.27614914 52559
STARLINK-32934          
1 63200U 25048T   26038.99428853  .00023819  00000+0  87220-3 0  9991
2 63200  42.9913 252.7661 0001940  44.5781 315.5227 15.27581942 52559
STARLINK-32938          
1 63201U 25048U   26039.99690152  .00026376  00000+0  96313-3 0  9990
2 63201  42.9985 247.3844 0001553 273.3214  86.7460 15.27629284 52700
STARLINK-32935          
1 63202U 25048V   26038.97257003  .00027794  00000+0  10151-2 0  9992
2 63202  43.0001 253.4636 0000301 276.6091  83.4726 15.27601375 52540
STARLINK-32930          
1 63203U 25048W   26039.68795942  .00020651  00000+0  75754-3 0  9997
2 63203  42.9995 249.3644 0001094 253.8927 106.1804 15.27594342 52656
STARLINK-11654 [DTC]    
1 63265U 25053A   26039.08380507  .00224236  00000+0  17013-2 0  9990
2 63265  43.0015 290.6447 0002664 247.7129 112.3456 15.70880954 53017
STARLINK-11659 [DTC]    
1 63266U 25053B   26040.03224886 -.00012088  00000+0 -90936-4 0  9994
2 63266  43.0001 284.8568 0001657 278.0200  82.0480 15.70815803 53167
STARLINK-11653 [DTC]    
1 63267U 25053C   26039.03706105  .00200517  00000+0  15297-2 0  9991
2 63267  42.9986 291.1664 0002755 247.5155 112.5421 15.70823198 53009
STARLINK-11641 [DTC]    
1 63268U 25053D   26040.01631870  .00265683  00000+0  20064-2 0  9991
2 63268  42.9994 284.7251 0002228 273.8697  86.1916 15.70864592 53162
STARLINK-11638 [DTC]    
1 63269U 25053E   26040.02162797  .00334058  00000+0  24746-2 0  9994
2 63269  42.9994 284.7681 0003625 268.2663  91.7789 15.71115941 53161
